{
  "type": "FeatureCollection",
  "features": [
    {
      "type": "Feature",
      "properties": {
        "norad_id": 54259,
        "name": "EUTELSAT 10B",
        "group": "eutelsat",
        "lat": -0.05814839161785795,
        "lon": 7.6895500687352145,
        "alt_km": 35785.923291252104,
        "timestamp": "2025-12-27T17:24:57.065313+00:00",
        "meta_object_name": "EUTELSAT 10B",
        "meta_object_id": "2022-157A",
        "meta_epoch": "2025-12-26T23:21:15.746688",
        "meta_mean_motion": 1.0026978,
        "meta_eccentricity": 3.879e-05,
        "meta_inclination": 0.0595,
        "meta_ra_of_asc_node": 95.7073,
        "meta_arg_of_pericenter": 337.8466,
        "meta_mean_anomaly": 22.488,
        "meta_ephemeris_type": 0,
        "meta_classification_type": "U",
        "meta_norad_cat_id": 54259,
        "meta_element_set_no": 999,
        "meta_rev_at_epoch": 1130,
        "meta_bstar": 0,
        "meta_mean_motion_dot": 9e-07,
        "meta_mean_motion_ddot": 0,
        "tle_line1": "1 54259U 22157A   25360.97309892  .00000090  00000+0  00000+0 0  9992",
        "tle_line2": "2 54259   0.0595  95.7073 0000387 337.8466  22.4880  1.00269780 11304"
      },
      "geometry": {
        "type": "Point",
        "coordinates": [
          7.6895500687352145,
          -0.05814839161785795
        ]
      }
    },
    {
      "type": "Feature",
      "properties": {
        "norad_id": 59346,
        "name": "EUTELSAT 36D",
        "group": "eutelsat",
        "lat": 0.009627169099348212,
        "lon": 33.59876742670044,
        "alt_km": 35783.11035908364,
        "timestamp": "2025-12-27T17:24:57.065325+00:00",
        "meta_object_name": "EUTELSAT 36D",
        "meta_object_id": "2024-059A",
        "meta_epoch": "2025-12-27T00:47:38.503392",
        "meta_mean_motion": 1.00278293,
        "meta_eccentricity": 0.00010384,
        "meta_inclination": 0.0199,
        "meta_ra_of_asc_node": 25.5491,
        "meta_arg_of_pericenter": 292.1883,
        "meta_mean_anomaly": 185.8304,
        "meta_ephemeris_type": 0,
        "meta_classification_type": "U",
        "meta_norad_cat_id": 59346,
        "meta_element_set_no": 999,
        "meta_rev_at_epoch": 642,
        "meta_bstar": 0,
        "meta_mean_motion_dot": 0,
        "meta_mean_motion_ddot": 0,
        "tle_line1": "1 59346U 24059A   25361.03308453  .00000000  00000+0  00000+0 0  9998",
        "tle_line2": "2 59346   0.0199  25.5491 0001038 292.1883 185.8304  1.00278293  6422"
      },
      "geometry": {
        "type": "Point",
        "coordinates": [
          33.59876742670044,
          0.009627169099348212
        ]
      }
    }
  ]
}